{
  "type": "FeatureCollection",
  "features": [
    {
      "type": "Feature",
      "properties": {
        "norad_id": 35000,
        "name": "COSMOS 2251 DEB",
        "group": "cosmos-2251-debris",
        "lat": 47.16946682556991,
        "lon": 3.0256431273043694,
        "alt_km": 292.7176850408796,
        "timestamp": "2025-12-11T08:58:27.521133+00:00",
        "meta_object_name": "COSMOS 2251 DEB",
        "meta_object_id": "1993-036AFY",
        "meta_epoch": "2025-12-10T00:39:45.535104",
        "meta_mean_motion": 15.84722247,
        "meta_eccentricity": 0.00096992,
        "meta_inclination": 73.9939,
        "meta_ra_of_asc_node": 204.1935,
        "meta_arg_of_pericenter": 175.3945,
        "meta_mean_anomaly": 184.7377,
        "meta_ephemeris_type": 0,
        "meta_classification_type": "U",
        "meta_norad_cat_id": 35000,
        "meta_element_set_no": 999,
        "meta_rev_at_epoch": 88472,
        "meta_bstar": 0.007821664,
        "meta_mean_motion_dot": 0.0209211,
        "meta_mean_motion_ddot": 0,
        "tle_line1": "1 35000U 93036AFY 25344.02761036  .02092110  00000+0  78217-2 0  9993",
        "tle_line2": "2 35000  73.9939 204.1935 0009699 175.3945 184.7377 15.84722247884729"
      },
      "geometry": {
        "type": "Point",
        "coordinates": [
          3.0256431273043694,
          47.16946682556991
        ]
      }
    },
    {
      "type": "Feature",
      "properties": {
        "norad_id": 35012,
        "name": "COSMOS 2251 DEB",
        "group": "cosmos-2251-debris",
        "lat": 23.539647963383672,
        "lon": -72.88536356122313,
        "alt_km": 748.3472923982899,
        "timestamp": "2025-12-11T08:58:27.521143+00:00",
        "meta_object_name": "COSMOS 2251 DEB",
        "meta_object_id": "1993-036AFZ",
        "meta_epoch": "2025-12-10T08:59:46.936320",
        "meta_mean_motion": 14.45543822,
        "meta_eccentricity": 0.00816553,
        "meta_inclination": 74.0197,
        "meta_ra_of_asc_node": 116.1499,
        "meta_arg_of_pericenter": 256.7977,
        "meta_mean_anomaly": 102.4062,
        "meta_ephemeris_type": 0,
        "meta_classification_type": "U",
        "meta_norad_cat_id": 35012,
        "meta_element_set_no": 999,
        "meta_rev_at_epoch": 87527,
        "meta_bstar": 0.00029743364,
        "meta_mean_motion_dot": 1.064e-05,
        "meta_mean_motion_ddot": 0,
        "tle_line1": "1 35012U 93036AFZ 25344.37484880  .00001064  00000+0  29743-3 0  9990",
        "tle_line2": "2 35012  74.0197 116.1499 0081655 256.7977 102.4062 14.45543822875272"
      },
      "geometry": {
        "type": "Point",
        "coordinates": [
          -72.88536356122313,
          23.539647963383672
        ]
      }
    },
    {
      "type": "Feature",
      "properties": {
        "norad_id": 35014,
        "name": "COSMOS 2251 DEB",
        "group": "cosmos-2251-debris",
        "lat": 58.67481443005004,
        "lon": -161.91719996576762,
        "alt_km": 640.042687039344,
        "timestamp": "2025-12-11T08:58:27.521153+00:00",
        "meta_object_name": "COSMOS 2251 DEB",
        "meta_object_id": "1993-036AGB",
        "meta_epoch": "2025-12-10T11:17:04.408224",
        "meta_mean_motion": 14.75108648,
        "meta_eccentricity": 0.0007489,
        "meta_inclination": 73.9993,
        "meta_ra_of_asc_node": 47.9831,
        "meta_arg_of_pericenter": 224.1256,
        "meta_mean_anomaly": 135.932,
        "meta_ephemeris_type": 0,
        "meta_classification_type": "U",
        "meta_norad_cat_id": 35014,
        "meta_element_set_no": 999,
        "meta_rev_at_epoch": 71303,
        "meta_bstar": 0.0024781418,
        "meta_mean_motion_dot": 0.00016732,
        "meta_mean_motion_ddot": 0,
        "tle_line1": "1 35014U 93036AGB 25344.47018991  .00016732  00000+0  24781-2 0  9993",
        "tle_line2": "2 35014  73.9993  47.9831 0007489 224.1256 135.9320 14.75108648713038"
      },
      "geometry": {
        "type": "Point",
        "coordinates": [
          -161.91719996576762,
          58.67481443005004
        ]
      }
    },
    {
      "type": "Feature",
      "properties": {
        "norad_id": 35015,
        "name": "COSMOS 2251 DEB",
        "group": "cosmos-2251-debris",
        "lat": -67.82875017340493,
        "lon": -167.66046491931888,
        "alt_km": 795.6079457488477,
        "timestamp": "2025-12-11T08:58:27.521164+00:00",
        "meta_object_name": "COSMOS 2251 DEB",
        "meta_object_id": "1993-036AGC",
        "meta_epoch": "2025-12-08T23:19:05.687904",
        "meta_mean_motion": 14.46841193,
        "meta_eccentricity": 0.0074204,
        "meta_inclination": 73.9478,
        "meta_ra_of_asc_node": 241.8046,
        "meta_arg_of_pericenter": 111.6456,
        "meta_mean_anomaly": 265.9615,
        "meta_ephemeris_type": 0,
        "meta_classification_type": "U",
        "meta_norad_cat_id": 35015,
        "meta_element_set_no": 999,
        "meta_rev_at_epoch": 65386,
        "meta_bstar": 0.00095869,
        "meta_mean_motion_dot": 3.57e-05,
        "meta_mean_motion_ddot": 0,
        "tle_line1": "1 35015U 93036AGC 25342.97159361  .00003570  00000+0  95869-3 0  9996",
        "tle_line2": "2 35015  73.9478 241.8046 0074204 111.6456 265.9615 14.46841193653863"
      },
      "geometry": {
        "type": "Point",
        "coordinates": [
          -167.66046491931888,
          -67.82875017340493
        ]
      }
    },
    {
      "type": "Feature",
      "properties": {
        "norad_id": 35016,
        "name": "COSMOS 2251 DEB",
        "group": "cosmos-2251-debris",
        "lat": 5.773909298658693,
        "lon": -61.38638898216781,
        "alt_km": 848.8385996276775,
        "timestamp": "2025-12-11T08:58:27.521174+00:00",
        "meta_object_name": "COSMOS 2251 DEB",
        "meta_object_id": "1993-036AGD",
        "meta_epoch": "2025-12-10T15:22:20.128800",
        "meta_mean_motion": 14.35053713,
        "meta_eccentricity": 0.011463,
        "meta_inclination": 73.9299,
        "meta_ra_of_asc_node": 298.2962,
        "meta_arg_of_pericenter": 215.7196,
        "meta_mean_anomaly": 322.3038,
        "meta_ephemeris_type": 0,
        "meta_classification_type": "U",
        "meta_norad_cat_id": 35016,
        "meta_element_set_no": 999,
        "meta_rev_at_epoch": 86752,
        "meta_bstar": 0.00053949,
        "meta_mean_motion_dot": 1.629e-05,
        "meta_mean_motion_ddot": 0,
        "tle_line1": "1 35016U 93036AGD 25344.64051075  .00001629  00000+0  53949-3 0  9992",
        "tle_line2": "2 35016  73.9299 298.2962 0114630 215.7196 322.3038 14.35053713867521"
      },
      "geometry": {
        "type": "Point",
        "coordinates": [
          -61.38638898216781,
          5.773909298658693
        ]
      }
    },
    {
      "type": "Feature",
      "properties": {
        "norad_id": 35018,
        "name": "COSMOS 2251 DEB",
        "group": "cosmos-2251-debris",
        "lat": 72.36007277393945,
        "lon": 176.88744404421283,
        "alt_km": 870.4361981277762,
        "timestamp": "2025-12-11T08:58:27.521184+00:00",
        "meta_object_name": "COSMOS 2251 DEB",
        "meta_object_id": "1993-036AGF",
        "meta_epoch": "2025-12-10T15:02:04.010784",
        "meta_mean_motion": 13.67108377,
        "meta_eccentricity": 0.0348496,
        "meta_inclination": 73.9756,
        "meta_ra_of_asc_node": 113.4622,
        "meta_arg_of_pericenter": 23.1067,
        "meta_mean_anomaly": 338.5295,
        "meta_ephemeris_type": 0,
        "meta_classification_type": "U",
        "meta_norad_cat_id": 35018,
        "meta_element_set_no": 999,
        "meta_rev_at_epoch": 83157,
        "meta_bstar": 0.0010454,
        "meta_mean_motion_dot": 1.311e-05,
        "meta_mean_motion_ddot": 0,
        "tle_line1": "1 35018U 93036AGF 25344.62643531  .00001311  00000+0  10454-2 0  9997",
        "tle_line2": "2 35018  73.9756 113.4622 0348496  23.1067 338.5295 13.67108377831570"
      },
      "geometry": {
        "type": "Point",
        "coordinates": [
          176.88744404421283,
          72.36007277393945
        ]
      }
    },
    {
      "type": "Feature",
      "properties": {
        "norad_id": 35020,
        "name": "COSMOS 2251 DEB",
        "group": "cosmos-2251-debris",
        "lat": -33.554585125584694,
        "lon": -169.37252542330236,
        "alt_km": 626.3579428676676,
        "timestamp": "2025-12-11T08:58:27.521194+00:00",
        "meta_object_name": "COSMOS 2251 DEB",
        "meta_object_id": "1993-036AGH",
        "meta_epoch": "2025-12-11T00:55:30.154080",
        "meta_mean_motion": 14.62800781,
        "meta_eccentricity": 0.0091164,
        "meta_inclination": 74.0465,
        "meta_ra_of_asc_node": 202.2067,
        "meta_arg_of_pericenter": 316.7345,
        "meta_mean_anomaly": 42.6686,
        "meta_ephemeris_type": 0,
        "meta_classification_type": "U",
        "meta_norad_cat_id": 35020,
        "meta_element_set_no": 999,
        "meta_rev_at_epoch": 88213,
        "meta_bstar": 0.00021288,
        "meta_mean_motion_dot": 1.119e-05,
        "meta_mean_motion_ddot": 0,
        "tle_line1": "1 35020U 93036AGH 25345.03854345  .00001119  00000+0  21288-3 0  9997",
        "tle_line2": "2 35020  74.0465 202.2067 0091164 316.7345  42.6686 14.62800781882138"
      },
      "geometry": {
        "type": "Point",
        "coordinates": [
          -169.37252542330236,
          -33.554585125584694
        ]
      }
    }
  ]
}